[{"OBJECT_NAME":"STRAND-1","OBJECT_ID":"2013-009E","EPOCH":"2026-03-09T21:53:59.161920","MEAN_MOTION":14.37095119,"ECCENTRICITY":0.00090423,"INCLINATION":98.3888,"RA_OF_ASC_NODE":251.5986,"ARG_OF_PERICENTER":161.0822,"MEAN_ANOMALY":199.0703,"EPHEMERIS_TYPE":0,"CLASSIFICATION_TYPE":"U","NORAD_CAT_ID":39090,"ELEMENT_SET_NO":999,"REV_AT_EPOCH":68280,"BSTAR":0.00017106883,"MEAN_MOTION_DOT":4.66e-6,"MEAN_MOTION_DDOT":0},{"OBJECT_NAME":"FORMOSAT-3 FM1","OBJECT_ID":"2006-011B","EPOCH":"2026-03-09T10:28:33.603456","MEAN_MOTION":14.31298108,"ECCENTRICITY":0.00417118,"INCLINATION":71.9648,"RA_OF_ASC_NODE":64.3712,"ARG_OF_PERICENTER":9.9811,"MEAN_ANOMALY":350.2145,"EPHEMERIS_TYPE":0,"CLASSIFICATION_TYPE":"U","NORAD_CAT_ID":29048,"ELEMENT_SET_NO":999,"REV_AT_EPOCH":4250,"BSTAR":0.00026136375,"MEAN_MOTION_DOT":6.57e-6,"MEAN_MOTION_DDOT":0}]
